[{"OBJECT_NAME":"STARLINK-32412","OBJECT_ID":"2024-193V","EPOCH":"2026-03-09T08:49:06.450528","MEAN_MOTION":15.30208553,"ECCENTRICITY":0.00013908,"INCLINATION":53.1592,"RA_OF_ASC_NODE":92.7577,"ARG_OF_PERICENTER":103.1881,"MEAN_ANOMALY":256.9275,"EPHEMERIS_TYPE":0,"CLASSIFICATION_TYPE":"U","NORAD_CAT_ID":61680,"ELEMENT_SET_NO":999,"REV_AT_EPOCH":7647,"BSTAR":0.00015131734,"MEAN_MOTION_DOT":4.126e-5,"MEAN_MOTION_DDOT":0},{"OBJECT_NAME":"CZ-4C R\/B","OBJECT_ID":"2015-069B","EPOCH":"2026-03-09T18:13:41.887776","MEAN_MOTION":15.30824061,"ECCENTRICITY":0.00587215,"INCLINATION":97.486,"RA_OF_ASC_NODE":137.7913,"ARG_OF_PERICENTER":156.3643,"MEAN_ANOMALY":204.0316,"EPHEMERIS_TYPE":0,"CLASSIFICATION_TYPE":"U","NORAD_CAT_ID":41039,"ELEMENT_SET_NO":999,"REV_AT_EPOCH":56689,"BSTAR":0.0003480254,"MEAN_MOTION_DOT":0.00010856,"MEAN_MOTION_DDOT":0}]
